SCD 1                   
1 22490U 93009B   26170.45153556  .00000315  00000+0  35137-4 0  9999
2 22490  24.9676 193.5957 0041988 161.6065 309.1420 14.46119450761443
TECHSAT 1B (GO-32)      
1 25397U 98043D   26170.59313746  .00000028  00000+0  32334-4 0  9992
2 25397  99.0068 163.4125 0001179 158.0468 202.0760 14.24428772451673
SCD 2                   
1 25504U 98060A   26170.39400902  .00000344  00000+0  45162-4 0  9994
2 25504  24.9958  58.5474 0016878 145.9714  14.9585 14.45526591460643
DLR-TUBSAT              
1 25757U 99029B   26170.56680821  .00000044  00000+0  22764-4 0  9999
2 25757  98.6695 166.1492 0013897 347.9099  12.1760 14.52427292433598
TERRA                   
1 25994U 99068A   26170.57029881  .00000271  00000+0  64191-4 0  9991
2 25994  97.9455 220.0221 0001772 181.5510 339.0816 14.61104662409955
MAROC-TUBSAT            
1 27004U 01056D   26170.40368377 -.00000038  00000+0  10254-4 0  9996
2 27004  99.8084 347.3050 0020393 135.7462 246.4760 13.70262508226496
AQUA                    
1 27424U 02022A   26170.66421478  .00000576  00000+0  12426-3 0  9994
2 27424  98.4277 139.9965 0001008  54.6608  57.0914 14.62161192283639
SHIYAN-1 (SY-1)         
1 28220U 04012A   26170.46700785  .00011339  00000+0  34917-3 0  9997
2 28220  97.8687 248.6837 0005377  24.9892 335.1609 15.33808861211447
AURA                    
1 28376U 04026A   26170.58801186  .00000582  00000+0  12749-3 0  9991
2 28376  98.3417 127.0612 0001188  76.9401 283.1932 14.61332106166563
IRS-P5 (CARTOSAT-1)     
1 28649U 05017A   26170.56130881  .00000994  00000+0  10570-3 0  9997
2 28649  97.5306 193.5182 0002532  77.0281 283.1221 14.91054422144175
SINAH 1                 
1 28893U 05043D   26170.58271039  .00000226  00000+0  52387-4 0  9991
2 28893  98.2865 304.9187 0013133 268.5158  91.4539 14.64158912100876
RESURS-DK 1             
1 29228U 06021A   26170.48117437  .00001551  00000+0  93164-4 0  9991
2 29228  69.9330 333.6151 0006880 290.7888  69.2541 15.13225616102924
ARIRANG-2 (KOMPSAT-2)   
1 29268U 06031A   26170.62118132 -.00000047  00000+0 -31764-6 0  9996
2 29268  97.8306 354.9495 0015877  67.7686  22.7382 14.64660454 61831
